{
 "generated_at": "2026-06-24T08:22:35Z",
 "sources": [
  {
   "name": "CelesTrak",
   "url": "https://celestrak.org/NORAD/elements/",
   "license": "frei verfügbar; Attribution. Ursprünglich USSPACECOM/Space-Track."
  },
  {
   "name": "GCAT (J. McDowell, planet4589.org)",
   "url": "https://planet4589.org/space/gcat/",
   "license": "CC-BY 4.0"
  }
 ],
 "satellites": [
  {
   "norad": 62384,
   "name": "ICEYE-X49",
   "intl": "2024-247H",
   "group": "sar",
   "gcat": {
    "class": "B",
    "category": "IMG-R",
    "owner": "ICEYE",
    "state": "FI"
   },
   "omm": {
    "OBJECT_NAME": "ICEYE-X49",
    "OBJECT_ID": "2024-247H",
    "EPOCH": "2026-06-23T21:40:46.549920",
    "MEAN_MOTION": 15.13034082,
    "ECCENTRICITY": 0.00012834,
    "INCLINATION": 44.9989,
    "RA_OF_ASC_NODE": 321.5398,
    "ARG_OF_PERICENTER": 269.4577,
    "MEAN_ANOMALY": 90.6153,
    "EPHEMERIS_TYPE": 0,
    "CLASSIFICATION_TYPE": "U",
    "NORAD_CAT_ID": 62384,
    "ELEMENT_SET_NO": 999,
    "REV_AT_EPOCH": 8319,
    "BSTAR": 0.00021033319,
    "MEAN_MOTION_DOT": 0.00003525,
    "MEAN_MOTION_DDOT": 0
   }
  },
  {
   "norad": 63255,
   "name": "ICEYE-X50",
   "intl": "2025-052AX",
   "group": "sar",
   "gcat": {
    "class": "B",
    "category": "IMG-R",
    "owner": "ICEYE",
    "state": "FI"
   },
   "omm": {
    "OBJECT_NAME": "ICEYE-X50",
    "OBJECT_ID": "2025-052AX",
    "EPOCH": "2026-06-23T23:36:14.503680",
    "MEAN_MOTION": 14.95299184,
    "ECCENTRICITY": 0.00023076,
    "INCLINATION": 97.6888,
    "RA_OF_ASC_NODE": 66.7483,
    "ARG_OF_PERICENTER": 140.1204,
    "MEAN_ANOMALY": 220.0186,
    "EPHEMERIS_TYPE": 0,
    "CLASSIFICATION_TYPE": "U",
    "NORAD_CAT_ID": 63255,
    "ELEMENT_SET_NO": 999,
    "REV_AT_EPOCH": 6966,
    "BSTAR": 0.0001633976,
    "MEAN_MOTION_DOT": 0.00001743,
    "MEAN_MOTION_DDOT": 0
   }
  },
  {
   "norad": 63257,
   "name": "ICEYE-X51",
   "intl": "2025-052AZ",
   "group": "sar",
   "gcat": {
    "class": "B",
    "category": "IMG-R",
    "owner": "ICEUS",
    "state": "US"
   },
   "omm": {
    "OBJECT_NAME": "ICEYE-X51",
    "OBJECT_ID": "2025-052AZ",
    "EPOCH": "2026-06-23T20:35:33.356544",
    "MEAN_MOTION": 15.00878718,
    "ECCENTRICITY": 0.00019428,
    "INCLINATION": 97.7572,
    "RA_OF_ASC_NODE": 69.9389,
    "ARG_OF_PERICENTER": 69.285,
    "MEAN_ANOMALY": 290.8582,
    "EPHEMERIS_TYPE": 0,
    "CLASSIFICATION_TYPE": "U",
    "NORAD_CAT_ID": 63257,
    "ELEMENT_SET_NO": 999,
    "REV_AT_EPOCH": 6980,
    "BSTAR": 0.00028549522,
    "MEAN_MOTION_DOT": 0.00003572,
    "MEAN_MOTION_DDOT": 0
   }
  },
  {
   "norad": 64572,
   "name": "ICEYE-X52",
   "intl": "2025-135AW",
   "group": "sar",
   "gcat": {
    "class": "B",
    "category": "IMG-R",
    "owner": "ICEYE",
    "state": "FI"
   },
   "omm": {
    "OBJECT_NAME": "ICEYE-X52",
    "OBJECT_ID": "2025-135AW",
    "EPOCH": "2026-06-23T21:40:50.238336",
    "MEAN_MOTION": 14.93578919,
    "ECCENTRICITY": 0.00010774,
    "INCLINATION": 97.7752,
    "RA_OF_ASC_NODE": 289.078,
    "ARG_OF_PERICENTER": 355.447,
    "MEAN_ANOMALY": 4.674,
    "EPHEMERIS_TYPE": 0,
    "CLASSIFICATION_TYPE": "U",
    "NORAD_CAT_ID": 64572,
    "ELEMENT_SET_NO": 999,
    "REV_AT_EPOCH": 5488,
    "BSTAR": 0.00011717651,
    "MEAN_MOTION_DOT": 0.00001179,
    "MEAN_MOTION_DDOT": 0
   }
  },
  {
   "norad": 64584,
   "name": "ICEYE-X53",
   "intl": "2025-135BJ",
   "group": "sar",
   "gcat": {
    "class": "B",
    "category": "IMG-R",
    "owner": "ICEYE",
    "state": "FI"
   },
   "omm": {
    "OBJECT_NAME": "ICEYE-X53",
    "OBJECT_ID": "2025-135BJ",
    "EPOCH": "2026-06-23T22:59:23.534592",
    "MEAN_MOTION": 15.00929841,
    "ECCENTRICITY": 0.00013206,
    "INCLINATION": 97.7377,
    "RA_OF_ASC_NODE": 291.7129,
    "ARG_OF_PERICENTER": 166.5436,
    "MEAN_ANOMALY": 193.5823,
    "EPHEMERIS_TYPE": 0,
    "CLASSIFICATION_TYPE": "U",
    "NORAD_CAT_ID": 64584,
    "ELEMENT_SET_NO": 999,
    "REV_AT_EPOCH": 5509,
    "BSTAR": 0.00021083304,
    "MEAN_MOTION_DOT": 0.00002626,
    "MEAN_MOTION_DDOT": 0
   }
  },
  {
   "norad": 64570,
   "name": "ICEYE-X54",
   "intl": "2025-135AU",
   "group": "sar",
   "gcat": {
    "class": "B",
    "category": "IMG-R",
    "owner": "ICEYE",
    "state": "FI"
   },
   "omm": {
    "OBJECT_NAME": "ICEYE-X54",
    "OBJECT_ID": "2025-135AU",
    "EPOCH": "2026-06-23T22:05:17.761344",
    "MEAN_MOTION": 14.94564762,
    "ECCENTRICITY": 0.00008131,
    "INCLINATION": 97.7722,
    "RA_OF_ASC_NODE": 289.2774,
    "ARG_OF_PERICENTER": 304.2198,
    "MEAN_ANOMALY": 55.8945,
    "EPHEMERIS_TYPE": 0,
    "CLASSIFICATION_TYPE": "U",
    "NORAD_CAT_ID": 64570,
    "ELEMENT_SET_NO": 999,
    "REV_AT_EPOCH": 5490,
    "BSTAR": 0.00023311803,
    "MEAN_MOTION_DOT": 0.00002464,
    "MEAN_MOTION_DDOT": 0
   }
  },
  {
   "norad": 64581,
   "name": "ICEYE-X55",
   "intl": "2025-135BF",
   "group": "sar",
   "gcat": {
    "class": "B",
    "category": "IMG-R",
    "owner": "ICEYE",
    "state": "FI"
   },
   "omm": {
    "OBJECT_NAME": "ICEYE-X55",
    "OBJECT_ID": "2025-135BF",
    "EPOCH": "2026-06-23T22:11:09.633984",
    "MEAN_MOTION": 14.95238978,
    "ECCENTRICITY": 0.00022748,
    "INCLINATION": 97.7743,
    "RA_OF_ASC_NODE": 289.6684,
    "ARG_OF_PERICENTER": 352.1631,
    "MEAN_ANOMALY": 7.9554,
    "EPHEMERIS_TYPE": 0,
    "CLASSIFICATION_TYPE": "U",
    "NORAD_CAT_ID": 64581,
    "ELEMENT_SET_NO": 999,
    "REV_AT_EPOCH": 5492,
    "BSTAR": 0.00026017439,
    "MEAN_MOTION_DOT": 0.00002804,
    "MEAN_MOTION_DDOT": 0
   }
  },
  {
   "norad": 64574,
   "name": "ICEYE-X56",
   "intl": "2025-135AY",
   "group": "sar",
   "gcat": {
    "class": "B",
    "category": "IMG-R",
    "owner": "ICEYE",
    "state": "FI"
   },
   "omm": {
    "OBJECT_NAME": "ICEYE-X56",
    "OBJECT_ID": "2025-135AY",
    "EPOCH": "2026-06-23T22:08:36.990240",
    "MEAN_MOTION": 14.95638664,
    "ECCENTRICITY": 0.00009444,
    "INCLINATION": 97.7743,
    "RA_OF_ASC_NODE": 289.8275,
    "ARG_OF_PERICENTER": 353.5081,
    "MEAN_ANOMALY": 6.6128,
    "EPHEMERIS_TYPE": 0,
    "CLASSIFICATION_TYPE": "U",
    "NORAD_CAT_ID": 64574,
    "ELEMENT_SET_NO": 999,
    "REV_AT_EPOCH": 5493,
    "BSTAR": 0.00024920481,
    "MEAN_MOTION_DOT": 0.00002712,
    "MEAN_MOTION_DDOT": 0
   }
  },
  {
   "norad": 64578,
   "name": "ICEYE-X57",
   "intl": "2025-135BC",
   "group": "sar",
   "gcat": {
    "class": "B",
    "category": "IMG-R",
    "owner": "ICEUS",
    "state": "US"
   },
   "omm": {
    "OBJECT_NAME": "ICEYE-X57",
    "OBJECT_ID": "2025-135BC",
    "EPOCH": "2026-06-23T22:24:23.249952",
    "MEAN_MOTION": 15.00874629,
    "ECCENTRICITY": 0.00020044,
    "INCLINATION": 97.7962,
    "RA_OF_ASC_NODE": 291.4156,
    "ARG_OF_PERICENTER": 60.4512,
    "MEAN_ANOMALY": 299.6911,
    "EPHEMERIS_TYPE": 0,
    "CLASSIFICATION_TYPE": "U",
    "NORAD_CAT_ID": 64578,
    "ELEMENT_SET_NO": 999,
    "REV_AT_EPOCH": 5503,
    "BSTAR": 0.00029019175,
    "MEAN_MOTION_DOT": 0.00003631,
    "MEAN_MOTION_DDOT": 0
   }
  },
  {
   "norad": 66751,
   "name": "ICEYE-X58",
   "intl": "2025-276CP",
   "group": "sar",
   "gcat": {
    "class": "B",
    "category": "IMG-R",
    "owner": "ICEYE",
    "state": "FI"
   },
   "omm": {
    "OBJECT_NAME": "ICEYE-X58",
    "OBJECT_ID": "2025-276CP",
    "EPOCH": "2026-06-23T13:59:57.495840",
    "MEAN_MOTION": 15.17404756,
    "ECCENTRICITY": 0.00022496,
    "INCLINATION": 97.4205,
    "RA_OF_ASC_NODE": 247.9025,
    "ARG_OF_PERICENTER": 342.5403,
    "MEAN_ANOMALY": 17.5753,
    "EPHEMERIS_TYPE": 0,
    "CLASSIFICATION_TYPE": "U",
    "NORAD_CAT_ID": 66751,
    "ELEMENT_SET_NO": 999,
    "REV_AT_EPOCH": 3138,
    "BSTAR": 0.00011995174,
    "MEAN_MOTION_DOT": 0.00002331,
    "MEAN_MOTION_DDOT": 0
   }
  }
 ]
}
