ICEYE-X49               
1 62384U 24247H   26174.90331655  .00003525  00000+0  21033-3 0  9990
2 62384  44.9989 321.5398 0001283 269.4577  90.6153 15.13034082 83195
ICEYE-X50               
1 63255U 25052AX  26174.98350120  .00001743  00000+0  16340-3 0  9994
2 63255  97.6888  66.7483 0002307 140.1204 220.0186 14.95299184 69665
ICEYE-X51               
1 63257U 25052AZ  26174.85802496  .00003572  00000+0  28550-3 0  9998
2 63257  97.7572  69.9389 0001942  69.2850 290.8582 15.00878718 69804
ICEYE-X54               
1 64570U 25135AU  26174.92034446  .00002464  00000+0  23312-3 0  9999
2 64570  97.7722 289.2774 0000813 304.2198  55.8945 14.94564762 54908
ICEYE-X52               
1 64572U 25135AW  26174.90335924  .00001179  00000+0  11718-3 0  9993
2 64572  97.7752 289.0780 0001077 355.4470   4.6740 14.93578919 54882
ICEYE-X56               
1 64574U 25135AY  26174.92265035  .00002712  00000+0  24920-3 0  9995
2 64574  97.7743 289.8275 0000944 353.5081   6.6128 14.95638664 54934
ICEYE-X57               
1 64578U 25135BC  26174.93360243  .00003631  00000+0  29019-3 0  9992
2 64578  97.7962 291.4156 0002004  60.4512 299.6911 15.00874629 55036
ICEYE-X55               
1 64581U 25135BF  26174.92441706  .00002804  00000+0  26017-3 0  9995
2 64581  97.7743 289.6684 0002274 352.1631   7.9554 14.95238978 54928
ICEYE-X53               
1 64584U 25135BJ  26174.95791128  .00002626  00000+0  21083-3 0  9997
2 64584  97.7377 291.7129 0001320 166.5436 193.5823 15.00929841 55096
ICEYE-X58               
1 66751U 25276CP  26174.58330435  .00002331  00000+0  11995-3 0  9994
2 66751  97.4205 247.9025 0002249 342.5403  17.5753 15.17404756 31384
